EUTELSAT 7A             
1 28187U 04008A   25361.22885955  .00000122  00000+0  00000+0 0  9992
2 28187   5.3926  74.0848 0001178 219.9271 105.1238  1.00272304 79625
EUTELSAT 174A           
1 28924U 05052A   25361.07687863  .00000029  00000+0  00000+0 0  9998
2 28924   3.7816  78.6845 0006100 199.1107  19.6710  1.00270382 50603
EUTELSAT HOTBIRD 13B    
1 29270U 06032A   25361.19159265  .00000178  00000+0  00000+0 0  9990
2 29270   1.2161  84.2490 0003340 191.7962 281.9465  1.00269308 45581
EUTELSAT HOTBIRD 13C    
1 33459U 08065A   25361.24645299 -.00000261  00000+0  00000+0 0  9999
2 33459   2.5069  81.2599 0003513 194.0242 219.1261  1.00272142 45624
EUTELSAT 36B            
1 36101U 09065A   25361.26629979  .00000135  00000+0  00000+0 0  9995
2 36101   0.0624  49.0752 0005904 226.6950 326.5774  1.00272350 58984
EUTELSAT KA-SAT 9A      
1 37258U 10069A   25360.97283891  .00000084  00000+0  00000+0 0  9994
2 37258   0.0498 338.8223 0001419 205.5257 270.5649  1.00269951 42280
EUTELSAT 7 WEST A       
1 37816U 11051A   25361.25494639 -.00000038  00000+0  00000+0 0  9992
2 37816   0.0617 355.6671 0005202 237.2939 307.5007  1.00271021 52157
EUTELSAT 16A            
1 37836U 11057A   25361.25953976  .00000126  00000+0  00000+0 0  9991
2 37836   0.0553 354.7485 0005819 283.4184 287.2446  1.00272018  5606
